start=new Date('2023-05-28T00:00:00.000Z').valueOf();
sats=[{"RCS_SIZE":"LARGE","ECCENTRICITY":"0.00011880","CENTER_NAME":"EARTH","TLE_LINE1":"1 45373U 20019P   23147.93307583  .00004153  00000-0  29757-3 0  9995","OBJECT_NAME":"STARLINK-1295","REF_FRAME":"TEME","MEAN_MOTION":"15.06395710","FILE":"3918755","SITE":"AFETR","MEAN_ELEMENT_THEORY":"SGP4","NORAD_CAT_ID":"45373","EPOCH":"2023-05-27T22:23:37.751712","SEMIMAJOR_AXIS":"6925.362","TLE_LINE2":"2 45373  53.0533  51.0191 0001188 108.8619 251.2499 15.06395710176486","COUNTRY_CODE":"US","TIME_SYSTEM":"UTC","GP_ID":"232631673","ARG_OF_PERICENTER":"108.8619","PERIOD":"95.592","MEAN_MOTION_DDOT":"0.0000000000000","DECAY_DATE":null,"BSTAR":"0.00029757000000","PERIAPSIS":"546.404","OBJECT_ID":"2020-019P","MEAN_ANOMALY":"251.2499","REV_AT_EPOCH":"17648","ELEMENT_SET_NO":"999","LAUNCH_DATE":"2020-03-18","MEAN_MOTION_DOT":"0.00004153","APOAPSIS":"548.049","RA_OF_ASC_NODE":"51.0191","INCLINATION":"53.0533","OBJECT_TYPE":"PAYLOAD","CLASSIFICATION_TYPE":"U","EPHEMERIS_TYPE":"0"},{"REV_AT_EPOCH":"17648","MEAN_ANOMALY":"271.8101","APOAPSIS":"548.291","LAUNCH_DATE":"2020-03-18","ELEMENT_SET_NO":"999","MEAN_MOTION_DOT":"-0.00001146","INCLINATION":"53.0546","RA_OF_ASC_NODE":"51.0298","OBJECT_TYPE":"PAYLOAD","CLASSIFICATION_TYPE":"U","EPHEMERIS_TYPE":"0","COUNTRY_CODE":"US","TIME_SYSTEM":"UTC","ARG_OF_PERICENTER":"88.3061","PERIOD":"95.593","GP_ID":"232631424","DECAY_DATE":null,"MEAN_MOTION_DDOT":"0.0000000000000","BSTAR":"-0.00005809500000","PERIAPSIS":"546.201","OBJECT_ID":"2020-019Q","SITE":"AFETR","MEAN_ELEMENT_THEORY":"SGP4","EPOCH":"2023-05-27T22:18:19.507680","SEMIMAJOR_AXIS":"6925.381","NORAD_CAT_ID":"45374","TLE_LINE2":"2 45374  53.0546  51.0298 0001509  88.3061 271.8101 15.06389378176480","RCS_SIZE":"LARGE","TLE_LINE1":"1 45374U 20019Q   23147.92939245 -.00001146  00000-0 -58095-4 0  9990","CENTER_NAME":"EARTH","ECCENTRICITY":"0.00015090","OBJECT_NAME":"STARLINK-1300","REF_FRAME":"TEME","FILE":"3918755","MEAN_MOTION":"15.06389378"},{"RCS_SIZE":"LARGE","REF_FRAME":"TEME","FILE":"3918755","MEAN_MOTION":"15.06393957","ECCENTRICITY":"0.00015740","CENTER_NAME":"EARTH","TLE_LINE1":"1 45375U 20019R   23147.94414575  .00002018  00000-0  15435-3 0  9994","OBJECT_NAME":"STARLINK-1302","SITE":"AFETR","NORAD_CAT_ID":"45375","EPOCH":"2023-05-27T22:39:34.192800","SEMIMAJOR_AXIS":"6925.367","TLE_LINE2":"2 45375  53.0566  50.9609 0001574 118.5347 241.5801 15.06393957176481","MEAN_ELEMENT_THEORY":"SGP4","GP_ID":"232630672","PERIOD":"95.593","ARG_OF_PERICENTER":"118.5347","COUNTRY_CODE":"US","TIME_SYSTEM":"UTC","PERIAPSIS":"546.142","OBJECT_ID":"2020-019R","MEAN_MOTION_DDOT":"0.0000000000000","DECAY_DATE":null,"BSTAR":"0.00015435000000","INCLINATION":"53.0566","RA_OF_ASC_NODE":"50.9609","MEAN_ANOMALY":"241.5801","REV_AT_EPOCH":"17648","LAUNCH_DATE":"2020-03-18","MEAN_MOTION_DOT":"0.00002018","ELEMENT_SET_NO":"999","APOAPSIS":"548.322","CLASSIFICATION_TYPE":"U","EPHEMERIS_TYPE":"0","OBJECT_TYPE":"PAYLOAD"},{"OBJECT_TYPE":"PAYLOAD","CLASSIFICATION_TYPE":"U","EPHEMERIS_TYPE":"0","MEAN_ANOMALY":"239.1309","REV_AT_EPOCH":"17647","LAUNCH_DATE":"2020-03-18","MEAN_MOTION_DOT":"-0.00001477","ELEMENT_SET_NO":"999","APOAPSIS":"548.192","RA_OF_ASC_NODE":"51.1782","INCLINATION":"53.0543","MEAN_MOTION_DDOT":"0.0000000000000","DECAY_DATE":null,"BSTAR":"-0.00008030900000","PERIAPSIS":"546.261","OBJECT_ID":"2020-019S","COUNTRY_CODE":"US","TIME_SYSTEM":"UTC","GP_ID":"232630922","PERIOD":"95.592","ARG_OF_PERICENTER":"120.9817","MEAN_ELEMENT_THEORY":"SGP4","NORAD_CAT_ID":"45376","EPOCH":"2023-05-27T21:30:33.103872","SEMIMAJOR_AXIS":"6925.361","TLE_LINE2":"2 45376  53.0543  51.1782 0001394 120.9817 239.1309 15.06395809176474","SITE":"AFETR","CENTER_NAME":"EARTH","ECCENTRICITY":"0.00013940","TLE_LINE1":"1 45376U 20019S   23147.89621648 -.00001477  00000-0 -80309-4 0  9993","OBJECT_NAME":"STARLINK-1304","REF_FRAME":"TEME","FILE":"3918755","MEAN_MOTION":"15.06395809","RCS_SIZE":"LARGE"},{"MEAN_ELEMENT_THEORY":"SGP4","TLE_LINE2":"2 45377  53.0542  51.0679 0001366  99.9199 260.1945 15.06392222176482","EPOCH":"2023-05-27T22:07:42.669696","SEMIMAJOR_AXIS":"6925.372","NORAD_CAT_ID":"45377","SITE":"AFETR","OBJECT_NAME":"STARLINK-1305","TLE_LINE1":"1 45377U 20019T   23147.92202164  .00000985  00000-0  85005-4 0  9995","CENTER_NAME":"EARTH","ECCENTRICITY":"0.00013660","MEAN_MOTION":"15.06392222","FILE":"3918755","REF_FRAME":"TEME","RCS_SIZE":"LARGE","OBJECT_TYPE":"PAYLOAD","EPHEMERIS_TYPE":"0","CLASSIFICATION_TYPE":"U","APOAPSIS":"548.183","LAUNCH_DATE":"2020-03-18","MEAN_MOTION_DOT":"0.00000985","ELEMENT_SET_NO":"999","REV_AT_EPOCH":"17648","MEAN_ANOMALY":"260.1945","INCLINATION":"53.0542","RA_OF_ASC_NODE":"51.0679","BSTAR":"0.00008500500000","DECAY_DATE":null,"MEAN_MOTION_DDOT":"0.0000000000000","OBJECT_ID":"2020-019T","PERIAPSIS":"546.291","TIME_SYSTEM":"UTC","COUNTRY_CODE":"US","PERIOD":"95.593","ARG_OF_PERICENTER":"99.9199","GP_ID":"232631174"},{"RCS_SIZE":"LARGE","MEAN_MOTION":"15.06384513","FILE":"3918755","REF_FRAME":"TEME","OBJECT_NAME":"STARLINK-1310","TLE_LINE1":"1 45378U 20019U   23147.91095768 -.00004549  00000-0 -28683-3 0  9995","ECCENTRICITY":"0.00014220","CENTER_NAME":"EARTH","SITE":"AFETR","TLE_LINE2":"2 45378  53.0546  51.1104 0001422  93.2604 266.8548 15.06384513176488","EPOCH":"2023-05-27T21:51:46.743552","SEMIMAJOR_AXIS":"6925.396","NORAD_CAT_ID":"45378","MEAN_ELEMENT_THEORY":"SGP4","ARG_OF_PERICENTER":"93.2604","PERIOD":"95.593","GP_ID":"232631924","TIME_SYSTEM":"UTC","COUNTRY_CODE":"US","OBJECT_ID":"2020-019U","PERIAPSIS":"546.276","BSTAR":"-0.00028683000000","DECAY_DATE":null,"MEAN_MOTION_DDOT":"0.0000000000000","RA_OF_ASC_NODE":"51.1104","INCLINATION":"53.0546","APOAPSIS":"548.246","LAUNCH_DATE":"2020-03-18","MEAN_MOTION_DOT":"-0.00004549","ELEMENT_SET_NO":"999","REV_AT_EPOCH":"17648","MEAN_ANOMALY":"266.8548","EPHEMERIS_TYPE":"0","CLASSIFICATION_TYPE":"U","OBJECT_TYPE":"PAYLOAD"},{"RCS_SIZE":"LARGE","MEAN_MOTION":"15.06392605","FILE":"3918755","REF_FRAME":"TEME","OBJECT_NAME":"STARLINK-1319","TLE_LINE1":"1 45379U 20019V   23147.91464928 -.00001859  00000-0 -10595-3 0  9998","ECCENTRICITY":"0.00010770","CENTER_NAME":"EARTH","SITE":"AFETR","TLE_LINE2":"2 45379  53.0549  51.1008 0001077  90.5133 269.5979 15.06392605176487","EPOCH":"2023-05-27T21:57:05.697792","SEMIMAJOR_AXIS":"6925.371","NORAD_CAT_ID":"45379","MEAN_ELEMENT_THEORY":"SGP4","ARG_OF_PERICENTER":"90.5133","PERIOD":"95.593","GP_ID":"232630173","TIME_SYSTEM":"UTC","COUNTRY_CODE":"US","OBJECT_ID":"2020-019V","PERIAPSIS":"546.490","BSTAR":"-0.00010595000000","DECAY_DATE":null,"MEAN_MOTION_DDOT":"0.0000000000000","INCLINATION":"53.0549","RA_OF_ASC_NODE":"51.1008","APOAPSIS":"547.982","MEAN_MOTION_DOT":"-0.00001859","LAUNCH_DATE":"2020-03-18","ELEMENT_SET_NO":"999","REV_AT_EPOCH":"17648","MEAN_ANOMALY":"269.5979","EPHEMERIS_TYPE":"0","CLASSIFICATION_TYPE":"U","OBJECT_TYPE":"PAYLOAD"},{"EPOCH":"2023-05-27T21:54:26.116992","SEMIMAJOR_AXIS":"6925.427","NORAD_CAT_ID":"45380","TLE_LINE2":"2 45380  53.0545  31.1066 0000749  85.8369 274.2705 15.06374543176751","MEAN_ELEMENT_THEORY":"SGP4","SITE":"AFETR","REF_FRAME":"TEME","FILE":"3918755","MEAN_MOTION":"15.06374543","TLE_LINE1":"1 45380U 20019W   23147.91280228  .00014191  00000-0  97031-3 0  9990","CENTER_NAME":"EARTH","ECCENTRICITY":"0.00007490","OBJECT_NAME":"STARLINK-1207","RCS_SIZE":"LARGE","CLASSIFICATION_TYPE":"U","EPHEMERIS_TYPE":"0","OBJECT_TYPE":"PAYLOAD","RA_OF_ASC_NODE":"31.1066","INCLINATION":"53.0545","REV_AT_EPOCH":"17675","MEAN_ANOMALY":"274.2705","APOAPSIS":"547.810","MEAN_MOTION_DOT":"0.00014191","LAUNCH_DATE":"2020-03-18","ELEMENT_SET_NO":"999","PERIAPSIS":"546.773","OBJECT_ID":"2020-019W","DECAY_DATE":null,"MEAN_MOTION_DDOT":"0.0000000000000","BSTAR":"0.00097031000000","PERIOD":"95.594","ARG_OF_PERICENTER":"85.8369","GP_ID":"232630423","COUNTRY_CODE":"US","TIME_SYSTEM":"UTC"},{"PERIAPSIS":"546.561","OBJECT_ID":"2020-019X","DECAY_DATE":null,"MEAN_MOTION_DDOT":"0.0000000000000","BSTAR":"-0.00016268000000","PERIOD":"95.593","ARG_OF_PERICENTER":"89.9578","GP_ID":"232631674","COUNTRY_CODE":"US","TIME_SYSTEM":"UTC","CLASSIFICATION_TYPE":"U","EPHEMERIS_TYPE":"0","OBJECT_TYPE":"PAYLOAD","RA_OF_ASC_NODE":"31.0548","INCLINATION":"53.0549","REV_AT_EPOCH":"17675","MEAN_ANOMALY":"270.1524","APOAPSIS":"547.937","LAUNCH_DATE":"2020-03-18","MEAN_MOTION_DOT":"-0.00002703","ELEMENT_SET_NO":"999","REF_FRAME":"TEME","MEAN_MOTION":"15.06388452","FILE":"3918755","TLE_LINE1":"1 45381U 20019X   23147.92385903 -.00002703  00000-0 -16268-3 0  9999","CENTER_NAME":"EARTH","ECCENTRICITY":"0.00009930","OBJECT_NAME":"STARLINK-1258","RCS_SIZE":"LARGE","EPOCH":"2023-05-27T22:10:21.420192","SEMIMAJOR_AXIS":"6925.384","NORAD_CAT_ID":"45381","TLE_LINE2":"2 45381  53.0549  31.0548 0000993  89.9578 270.1524 15.06388452176756","MEAN_ELEMENT_THEORY":"SGP4","SITE":"AFETR"},{"OBJECT_NAME":"STARLINK-1264","TLE_LINE1":"1 45382U 20019Y   23147.88590097  .00022607  00000-0  99292-3 0  9998","ECCENTRICITY":"0.00030470","CENTER_NAME":"EARTH","MEAN_MOTION":"15.21855660","FILE":"3918755","REF_FRAME":"TEME","RCS_SIZE":"LARGE","MEAN_ELEMENT_THEORY":"SGP4","TLE_LINE2":"2 45382  53.0411  19.0992 0003047  84.4687 275.6656 15.21855660176740","SEMIMAJOR_AXIS":"6878.381","EPOCH":"2023-05-27T21:15:41.843808","NORAD_CAT_ID":"45382","SITE":"AFETR","BSTAR":"0.00099292000000","DECAY_DATE":null,"MEAN_MOTION_DDOT":"0.0000000000000","OBJECT_ID":"2020-019Y","PERIAPSIS":"498.150","TIME_SYSTEM":"UTC","COUNTRY_CODE":"US","ARG_OF_PERICENTER":"84.4687","PERIOD":"94.621","GP_ID":"232631425","OBJECT_TYPE":"PAYLOAD","EPHEMERIS_TYPE":"0","CLASSIFICATION_TYPE":"U","APOAPSIS":"502.341","MEAN_MOTION_DOT":"0.00022607","LAUNCH_DATE":"2020-03-18","ELEMENT_SET_NO":"999","REV_AT_EPOCH":"17674","MEAN_ANOMALY":"275.6656","INCLINATION":"53.0411","RA_OF_ASC_NODE":"19.0992"}];
